OSCAR 7 (AO-7)          
1 07530U 74089B   24160.79397396 -.00000043  00000+0  21989-4 0  9999
2 07530 101.9774 155.3640 0012621  99.9121  75.4984 12.53676044268228
PHASE 3B (AO-10)        
1 14129U 83058B   24157.24166541  .00000132  00000+0  00000+0 0  9993
2 14129  27.4440 340.9726 6035050 274.1947  23.1154  2.05864784280217
UOSAT 2 (UO-11)         
1 14781U 84021B   24160.87866585  .00002822  00000+0  32308-3 0  9994
2 14781  97.7043 130.4002 0009790 102.1391 258.0922 14.86700233168259
LUSAT (LO-19)           
1 20442U 90005G   24160.56890106  .00000382  00000+0  15477-3 0  9993
2 20442  98.8819 150.6099 0011130 205.9771 154.0855 14.33546648796547
EYESAT A (AO-27)        
1 22825U 93061C   24160.86451342  .00000290  00000+0  12868-3 0  9992
2 22825  98.7888 213.5530 0009556 102.3010 257.9243 14.30501995601691
ITAMSAT (IO-26)         
1 22826U 93061D   24160.56559050  .00000341  00000+0  14715-3 0  9995
2 22826  98.7836 213.1146 0010107  89.9941 270.2400 14.30883830601662
RADIO ROSTO (RS-15)     
1 23439U 94085A   24160.51095422 -.00000020  00000+0  63093-3 0  9994
2 23439  64.8194  57.7992 0150228 145.3872 215.6940 11.27577260212619
JAS-2 (FO-29)           
1 24278U 96046B   24160.54213890 -.00000013  00000+0  24051-4 0  9993
2 24278  98.5803  96.3314 0349608 210.5060 147.5325 13.53189945373264
TECHSAT 1B (GO-32)      
1 25397U 98043D   24160.45464321  .00000220  00000+0  11553-3 0  9993
2 25397  98.9211 127.0475 0001608 141.5470 218.5823 14.24053324346179
ISS (ZARYA)             
1 25544U 98067A   24160.51191303  .00022368  00000+0  38434-3 0  9991
2 25544  51.6409 358.2635 0005478 282.1397 166.0603 15.51036220457200
PCSAT (NO-44)           
1 26931U 01043C   24160.61142199  .00000419  00000+0  18949-3 0  9992
2 26931  67.0517 353.7089 0006948 280.0041  80.0277 14.31246381184725
SAUDISAT 1C (SO-50)     
1 27607U 02058C   24160.68074344  .00002833  00000+0  39894-3 0  9997
2 27607  64.5553 247.6946 0027208 117.3743 243.0135 14.78988904155271
CUTE-1 (CO-55)          
1 27844U 03031E   24160.51390004  .00000733  00000+0  34287-3 0  9996
2 27844  98.6764 167.6643 0010072 162.7800 197.3722 14.23267097 86550
CUBESAT XI-IV (CO-57)   
1 27848U 03031J   24160.51495173  .00000624  00000+0  29784-3 0  9998
2 27848  98.6795 167.9152 0009616 178.5053 181.6156 14.22708053 86304
MOZHAYETS 4 (RS-22)     
1 27939U 03042A   24160.85634021  .00002569  00000+0  43697-3 0  9994
2 27939  98.2903 316.9246 0013254  87.7500  59.1257 14.69947704107059
CUBESAT XI-V            
1 28895U 05043F   24160.78704148  .00003259  00000+0  58020-3 0  9992
2 28895  98.2008 296.6024 0016004  28.4691 331.7384 14.67699180993451
CUTE-1.7+APD II (CO-65) 
1 32785U 08021C   24160.86060777  .00008912  00000+0  78438-3 0  9992
2 32785  97.7551 126.2578 0011018   6.5701 353.5663 14.96686889874300
SEEDS II (CO-66)        
1 32791U 08021J   24160.48404312  .00014307  00000+0  10461-2 0  9990
2 32791  97.6879 131.7040 0004926 356.7256   3.3936 15.03716193875292
YUBILEINY (RS-30)       
1 32953U 08025A   24160.78227278  .00000046  00000+0  25734-3 0  9996
2 32953  82.5025  94.7138 0020291 120.4549 239.8539 12.43142144728087
KKS-1 (KISEKI)          
1 33499U 09002H   24160.55603162  .00002965  00000+0  41074-3 0  9990
2 33499  98.1403  62.0936 0009188 149.8603 210.3138 14.78757905826847
SWISSCUBE               
1 35932U 09051B   24160.24862024  .00002433  00000+0  52757-3 0  9998
2 35932  98.4723  43.3817 0007188 357.6319   2.4845 14.59069188781258
BEESAT-1                
1 35933U 09051C   24160.38894121  .00001996  00000+0  43731-3 0  9992
2 35933  98.4653  44.4453 0005845  12.2223 347.9116 14.58803403781348
ITUPSAT1                
1 35935U 09051E   24160.60319224  .00001802  00000+0  40461-3 0  9998
2 35935  98.4751  44.4530 0008204  14.2117 345.9311 14.57760786781015
XIWANG-1 (HOPE-1)       
1 36122U 09072B   24160.75107024 -.00000003  00000+0  10642-3 0  9990
2 36122 100.2937 119.2460 0008061 119.9591 240.2323 13.16402022695952
O/OREOS (USA 219)       
1 37224U 10062C   24160.52768173  .00004681  00000+0  52414-3 0  9996
2 37224  71.9730 306.4442 0014716  25.4841 334.7049 14.87271399  6549
JUGNU                   
1 37839U 11058B   24160.58809126  .00000630  00000+0  19117-3 0  9997
2 37839  19.9602 114.0907 0018760 201.3087 316.8619 14.13218709654504
SRMSAT                  
1 37841U 11058D   24160.48423367  .00000598  00000+0  18253-3 0  9991
2 37841  19.9705 209.4235 0011845 359.9606  29.3324 14.11122842653337
M-CUBED & EXP-1 PRIME   
1 37855U 11061F   24160.76971273  .00459884  79886-4  18884-2 0  9993
2 37855 101.6835 342.5427 0032000 342.2952  17.7185 15.85109940692191
STRAND-1                
1 39090U 13009E   24160.56772372  .00000715  00000+0  26036-3 0  9998
2 39090  98.3812 349.0924 0007648 279.9716  80.0607 14.36077915591000
ZACUBE-1 (TSHEPISOSAT)  
1 39417U 13066B   24160.85519066  .00005923  00000+0  61784-3 0  9990
2 39417  97.7342 117.0129 0050463 186.0102 174.0517 14.89176027570344
GOMX-1                  
1 39430U 13066Q   24160.71210493  .00003326  00000+0  55822-3 0  9993
2 39430  97.7332  35.6084 0138539 279.9784  78.5809 14.64162576561802
CUBEBUG-2 (LO-74)       
1 39440U 13066AA  24160.81248168  .00006949  00000+0  82028-3 0  9997
2 39440  97.8133 104.6630 0068303 302.4730  56.9893 14.83334897568292
FUNCUBE-1 (AO-73)       
1 39444U 13066AE  24160.62902832  .00009188  00000+0  89068-3 0  9994
2 39444  97.7189 119.8932 0048712 167.1579 193.0894 14.92006034569427
UWE-3                   
1 39446U 13066AG  24160.83458190  .00005566  00000+0  62257-3 0  9999
2 39446  97.7813 110.7538 0058765 246.3510 113.1531 14.86055695568058
SPROUT                  
1 39770U 14029E   24160.85157996  .00196831  00000+0  39943-2 0  9992
2 39770  98.0081 312.5765 0008468 227.5986 132.4545 15.45577455546364
UNISAT-6                
1 40012U 14033C   24160.82376908  .00004407  00000+0  57812-3 0  9994
2 40012  97.7027 323.5906 0051938 333.7970  26.0616 14.79855013536601
DUCHIFAT-1              
1 40021U 14033M   24160.46340847  .00017989  00000+0  11995-2 0  9997
2 40021  98.0894 143.8503 0014962 125.5217 234.7407 15.07037266542810
QB50P1                  
1 40025U 14033R   24160.87685424  .00009299  00000+0  75850-3 0  9995
2 40025  98.0387 121.3671 0010936 184.7653 175.3467 14.99640169542140
KAITUO 1A               
1 40904U 15049F   24160.82512854  .00053062  00000+0  10455-2 0  9996
2 40904  97.4830 177.2833 0005556   1.9198 358.2072 15.47034618483157
XW-2C                   
1 40906U 15049H   24160.81762058  .00036133  00000+0  84225-3 0  9997
2 40906  97.4775 177.4111 0006416 346.1431  13.9639 15.42145746483185
XW-2D                   
1 40907U 15049J   24160.81168225  .00053468  00000+0  97129-3 0  9991
2 40907  97.4708 179.8298 0003803 330.0277  30.0755 15.49383566483406
LILACSAT-2              
1 40908U 15049K   24160.86839442  .00012064  00000+0  46738-3 0  9990
2 40908  97.5230 169.5178 0012859  28.9507 331.2442 15.26233919482220
XW-2B                   
1 40911U 15049N   24160.83396729  .00052815  00000+0  98444-3 0  9996
2 40911  97.4687 179.9620 0003927 332.0247  28.0792 15.48647906483276
LAPAN-A2                
1 40931U 15052B   24160.44242029  .00001651  00000+0  13610-3 0  9996
2 40931   6.0002  55.1923 0013228 316.1800  43.7279 14.77867904470272
FOX-1A (AO-85)          
1 40967U 15058D   24160.48751114  .00005115  00000+0  48330-3 0  9991
2 40967  64.7794  42.1899 0189337 306.5992  51.7824 14.82194789  3703
CAS-2T & KS-1Q          
1 41847U 16066G   24160.56006063  .00002959  00000+0  44036-3 0  9996
2 41847  98.4603 231.9236 0353819 203.1764 155.3127 14.41222006398257
ZHUHAI-1 02 (CAS-4B)    
1 42759U 17034B   24160.81074770  .00021910  00000+0  79148-3 0  9993
2 42759  43.0171 273.8946 0013226 292.3045  67.6404 15.27994060386123
ZHUHAI-1 01 (CAS-4A)    
1 42761U 17034D   24160.74727530  .00021862  00000+0  78744-3 0  9994
2 42761  43.0216 272.6063 0012037 300.6883  59.2783 15.28104786386121
MAX VALIER SAT          
1 42778U 17036P   24160.85569577  .00414099  66490-4  13450-2 0  9991
2 42778  97.0832 198.8732 0006950 194.7923 165.3149 15.90692986388263
RADFXSAT (FOX-1B)       
1 43017U 17073E   24160.61257757  .00013202  00000+0  81957-3 0  9996
2 43017  97.5797  36.4043 0209602 322.8237  35.8621 14.93321446354382
DIWATA-2B               
1 43678U 18084H   24160.84292491  .00003043  00000+0  28177-3 0  9998
2 43678  98.0706 318.5868 0010116  63.8574 296.3685 14.95268992305676
ES'HAIL 2               
1 43700U 18090A   24160.57255793  .00000143  00000+0  00000+0 0  9994
2 43700   0.0144  34.9960 0001629  82.7362  11.6323  1.00273759 20273
FOX-1CLIFF (AO-95)      
1 43770U 18099N   24160.59977759  .00010993  00000+0  76233-3 0  9994
2 43770  97.5445 218.6285 0014221  38.1667 322.0565 15.05694302301271
ITASAT                  
1 43786U 18099AE  24160.74485346  .00008946  00000+0  64599-3 0  9991
2 43786  97.5107 218.2476 0017853  27.8712 332.3466 15.04186625301302
JY1SAT (JO-97)          
1 43803U 18099AX  24160.73606854  .00012358  00000+0  82220-3 0  9992
2 43803  97.5197 219.5938 0008806 338.5427  21.5431 15.07254946301428
UWE-4                   
1 43880U 18111E   24160.24816582  .00014852  00000+0  92898-3 0  9992
2 43880  97.6125  66.0354 0018068  45.0852 315.1839 15.09382051298087
JAISAT-1                
1 44419U 19038F   24159.64848634  .03338349  25950-5  17433-2 0  9996
2 44419  97.6468 168.8975 0008764 203.2539 156.8354 16.20169006273709
DUCHIFAT-3              
1 44854U 19089C   24160.89427467  .00021149  00000+0  10728-2 0  9998
2 44854  36.9574  99.3605 0005802 356.6878   3.3830 15.16193397246948
